{
  "links" : {
    "next" : "https://api.nasa.gov/neo/rest/v1/feed?start_date=2008-09-09&end_date=2008-09-09&detailed=true&api_key=t0TVs3DtDT2H8Oy2Zy8m2eVrNsAVKAexjcZXUckd",
    "prev" : "https://api.nasa.gov/neo/rest/v1/feed?start_date=2008-09-07&end_date=2008-09-07&detailed=true&api_key=t0TVs3DtDT2H8Oy2Zy8m2eVrNsAVKAexjcZXUckd",
    "self" : "https://api.nasa.gov/neo/rest/v1/feed?start_date=2008-09-08&end_date=2008-09-08&detailed=true&api_key=t0TVs3DtDT2H8Oy2Zy8m2eVrNsAVKAexjcZXUckd"
  },
  "element_count" : 8,
  "near_earth_objects" : {
    "2008-09-08" : [ {
      "links" : {
        "self" : "https://api.nasa.gov/neo/rest/v1/neo/3646915?api_key=t0TVs3DtDT2H8Oy2Zy8m2eVrNsAVKAexjcZXUckd"
      },
      "neo_reference_id" : "3646915",
      "name" : "(2013 RG)",
      "nasa_jpl_url" : "http://ssd.jpl.nasa.gov/sbdb.cgi?sstr=3646915",
      "absolute_magnitude_h" : 29.4,
      "estimated_diameter" : {
        "kilometers" : {
          "estimated_diameter_min" : 0.0035039264,
          "estimated_diameter_max" : 0.0078350176
        },
        "meters" : {
          "estimated_diameter_min" : 3.5039264111,
          "estimated_diameter_max" : 7.8350176433
        },
        "miles" : {
          "estimated_diameter_min" : 0.0021772383,
          "estimated_diameter_max" : 0.0048684527
        },
        "feet" : {
          "estimated_diameter_min" : 11.4958219265,
          "estimated_diameter_max" : 25.705439285
        }
      },
      "is_potentially_hazardous_asteroid" : false,
      "close_approach_data" : [ {
        "close_approach_date" : "2008-09-08",
        "epoch_date_close_approach" : 1220857200000,
        "relative_velocity" : {
          "kilometers_per_second" : "14.245672212",
          "kilometers_per_hour" : "51284.4199631669",
          "miles_per_hour" : "31866.1441710022"
        },
        "miss_distance" : {
          "astronomical" : "0.0602190004",
          "lunar" : "23.4251918793",
          "kilometers" : "9008634",
          "miles" : "5597706"
        },
        "orbiting_body" : "Earth"
      } ],
      "orbital_data" : {
        "orbit_id" : "5",
        "orbit_determination_date" : "2017-04-06 08:44:57",
        "orbit_uncertainty" : "7",
        "minimum_orbit_intersection" : ".00141455",
        "jupiter_tisserand_invariant" : "3.802",
        "epoch_osculation" : "2458000.5",
        "eccentricity" : ".6054446710714149",
        "semi_major_axis" : "1.818823967783011",
        "inclination" : ".9946876223564735",
        "ascending_node_longitude" : "336.1636582033192",
        "orbital_period" : "895.9513530802529",
        "perihelion_distance" : ".7176266888718202",
        "perihelion_argument" : "81.0767088937063",
        "aphelion_distance" : "2.920021246694201",
        "perihelion_time" : "2458378.773957907532",
        "mean_anomaly" : "208.0066753864107",
        "mean_motion" : ".401807529797607",
        "equinox" : "J2000"
      }
    }, {
      "links" : {
        "self" : "https://api.nasa.gov/neo/rest/v1/neo/3741151?api_key=t0TVs3DtDT2H8Oy2Zy8m2eVrNsAVKAexjcZXUckd"
      },
      "neo_reference_id" : "3741151",
      "name" : "(2016 CE)",
      "nasa_jpl_url" : "http://ssd.jpl.nasa.gov/sbdb.cgi?sstr=3741151",
      "absolute_magnitude_h" : 28.5,
      "estimated_diameter" : {
        "kilometers" : {
          "estimated_diameter_min" : 0.0053034072,
          "estimated_diameter_max" : 0.0118587791
        },
        "meters" : {
          "estimated_diameter_min" : 5.3034072332,
          "estimated_diameter_max" : 11.8587790858
        },
        "miles" : {
          "estimated_diameter_min" : 0.0032953835,
          "estimated_diameter_max" : 0.0073687014
        },
        "feet" : {
          "estimated_diameter_min" : 17.3996305869,
          "estimated_diameter_max" : 38.9067567758
        }
      },
      "is_potentially_hazardous_asteroid" : false,
      "close_approach_data" : [ {
        "close_approach_date" : "2008-09-08",
        "epoch_date_close_approach" : 1220857200000,
        "relative_velocity" : {
          "kilometers_per_second" : "8.2978771291",
          "kilometers_per_hour" : "29872.35766466",
          "miles_per_hour" : "18561.5213500216"
        },
        "miss_distance" : {
          "astronomical" : "0.3085918063",
          "lunar" : "120.0422134399",
          "kilometers" : "46164680",
          "miles" : "28685402"
        },
        "orbiting_body" : "Earth"
      } ],
      "orbital_data" : {
        "orbit_id" : "4",
        "orbit_determination_date" : "2017-04-06 08:28:45",
        "orbit_uncertainty" : "6",
        "minimum_orbit_intersection" : ".000101844",
        "jupiter_tisserand_invariant" : "6.890",
        "epoch_osculation" : "2458000.5",
        "eccentricity" : ".2854391572803602",
        "semi_major_axis" : ".8503429056473876",
        "inclination" : "5.778161233838581",
        "ascending_node_longitude" : "315.8789167082497",
        "orbital_period" : "286.4109158552822",
        "perihelion_distance" : ".6076217432600644",
        "perihelion_argument" : "316.2954172370589",
        "aphelion_distance" : "1.093064068034711",
        "perihelion_time" : "2458084.494033036938",
        "mean_anomaly" : "254.4249320840256",
        "mean_motion" : "1.25693533336523",
        "equinox" : "J2000"
      }
    } ]
  }
}